start=new Date('2022-08-12T00:00:00.000Z').valueOf();
sats=[{"EPOCH":"2022-08-11T22:00:00.999936","GP_ID":"210041443","TLE_LINE1":"1 51784U 22017S   22223.91667824 -.00002641  00000-0 -14783-3 0  9992","MEAN_MOTION":"15.08846873","OBJECT_TYPE":"PAYLOAD","CENTER_NAME":"EARTH","MEAN_MOTION_DOT":"-0.00002641","SITE":"AFWTR","EPHEMERIS_TYPE":"0","ARG_OF_PERICENTER":"68.5179","LAUNCH_DATE":"2022-02-25","REV_AT_EPOCH":"2680","PERIAPSIS":"538.413","RCS_SIZE":"LARGE","FILE":"3534756","BSTAR":"-0.00014783000000","RA_OF_ASC_NODE":"90.9588","CLASSIFICATION_TYPE":"U","NORAD_CAT_ID":"51784","INCLINATION":"53.2162","MEAN_ANOMALY":"166.0224","MEAN_ELEMENT_THEORY":"SGP4","TIME_SYSTEM":"UTC","PERIOD":"95.437","DECAY_DATE":null,"APOAPSIS":"541.036","COUNTRY_CODE":"US","OBJECT_NAME":"STARLINK-3632","ELEMENT_SET_NO":"999","MEAN_MOTION_DDOT":"0.0000000000000","REF_FRAME":"TEME","TLE_LINE2":"2 51784  53.2162  90.9588 0001896  68.5179 166.0224 15.08846873 26802","OBJECT_ID":"2022-017S","SEMIMAJOR_AXIS":"6917.859","ECCENTRICITY":"0.00018960"},{"TLE_LINE1":"1 51785U 22017T   22223.91667824  .00001336  00000-0  10202-3 0  9993","EPOCH":"2022-08-11T22:00:00.999936","GP_ID":"210041447","ARG_OF_PERICENTER":"69.6247","SITE":"AFWTR","EPHEMERIS_TYPE":"0","MEAN_MOTION_DOT":"0.00001336","OBJECT_TYPE":"PAYLOAD","CENTER_NAME":"EARTH","MEAN_MOTION":"15.08834442","PERIAPSIS":"538.538","LAUNCH_DATE":"2022-02-25","REV_AT_EPOCH":"2698","TIME_SYSTEM":"UTC","MEAN_ELEMENT_THEORY":"SGP4","NORAD_CAT_ID":"51785","INCLINATION":"53.2181","MEAN_ANOMALY":"279.8707","RA_OF_ASC_NODE":"80.9709","CLASSIFICATION_TYPE":"U","FILE":"3534756","BSTAR":"0.00010202000000","RCS_SIZE":"LARGE","COUNTRY_CODE":"US","APOAPSIS":"540.987","DECAY_DATE":null,"PERIOD":"95.438","ELEMENT_SET_NO":"999","OBJECT_NAME":"STARLINK-3646","OBJECT_ID":"2022-017T","TLE_LINE2":"2 51785  53.2181  80.9709 0001770  69.6247 279.8707 15.08834442 26984","MEAN_MOTION_DDOT":"0.0000000000000","REF_FRAME":"TEME","ECCENTRICITY":"0.00017700","SEMIMAJOR_AXIS":"6917.897"},{"TIME_SYSTEM":"UTC","MEAN_ELEMENT_THEORY":"SGP4","INCLINATION":"53.2160","NORAD_CAT_ID":"51786","MEAN_ANOMALY":"211.4595","RA_OF_ASC_NODE":"90.9611","CLASSIFICATION_TYPE":"U","RCS_SIZE":"LARGE","FILE":"3534756","BSTAR":"-0.00022600000000","PERIAPSIS":"538.401","LAUNCH_DATE":"2022-02-25","REV_AT_EPOCH":"2684","ARG_OF_PERICENTER":"63.0564","SITE":"AFWTR","EPHEMERIS_TYPE":"0","OBJECT_TYPE":"PAYLOAD","CENTER_NAME":"EARTH","MEAN_MOTION_DOT":"-0.00003882","MEAN_MOTION":"15.08824460","TLE_LINE1":"1 51786U 22017U   22223.91667824 -.00003882  00000-0 -22600-3 0  9999","EPOCH":"2022-08-11T22:00:00.999936","GP_ID":"210041681","ECCENTRICITY":"0.00020120","SEMIMAJOR_AXIS":"6917.928","OBJECT_ID":"2022-017U","TLE_LINE2":"2 51786  53.2160  90.9611 0002012  63.0564 211.4595 15.08824460 26846","MEAN_MOTION_DDOT":"0.0000000000000","REF_FRAME":"TEME","ELEMENT_SET_NO":"999","OBJECT_NAME":"STARLINK-3638","COUNTRY_CODE":"US","APOAPSIS":"541.185","DECAY_DATE":null,"PERIOD":"95.439"},{"OBJECT_TYPE":"PAYLOAD","MEAN_MOTION_DOT":"-0.00004026","CENTER_NAME":"EARTH","MEAN_MOTION":"15.08822149","ARG_OF_PERICENTER":"61.5714","EPHEMERIS_TYPE":"0","SITE":"AFWTR","EPOCH":"2022-08-11T22:00:00.999936","GP_ID":"210041456","TLE_LINE1":"1 51787U 22017V   22223.91667824 -.00004026  00000-0 -23510-3 0  9992","CLASSIFICATION_TYPE":"U","RA_OF_ASC_NODE":"90.9584","FILE":"3534757","RCS_SIZE":"LARGE","BSTAR":"-0.00023510000000","MEAN_ELEMENT_THEORY":"SGP4","TIME_SYSTEM":"UTC","MEAN_ANOMALY":"132.9460","INCLINATION":"53.2161","NORAD_CAT_ID":"51787","PERIAPSIS":"538.417","LAUNCH_DATE":"2022-02-25","REV_AT_EPOCH":"2679","OBJECT_NAME":"STARLINK-3619","ELEMENT_SET_NO":"999","PERIOD":"95.439","DECAY_DATE":null,"COUNTRY_CODE":"US","APOAPSIS":"541.183","SEMIMAJOR_AXIS":"6917.935","ECCENTRICITY":"0.00019990","TLE_LINE2":"2 51787  53.2161  90.9584 0001999  61.5714 132.9460 15.08822149 26794","REF_FRAME":"TEME","MEAN_MOTION_DDOT":"0.0000000000000","OBJECT_ID":"2022-017V"},{"OBJECT_TYPE":"PAYLOAD","MEAN_MOTION_DOT":"-0.00034115","CENTER_NAME":"EARTH","MEAN_MOTION":"15.08846317","ARG_OF_PERICENTER":"62.8669","SITE":"AFWTR","EPHEMERIS_TYPE":"0","EPOCH":"2022-08-11T22:00:00.999936","GP_ID":"210041703","TLE_LINE1":"1 51788U 22017W   22223.91667824 -.00034115  00000-0 -21351-2 0  9995","RA_OF_ASC_NODE":"90.9771","CLASSIFICATION_TYPE":"U","BSTAR":"-0.00213510000000","FILE":"3534757","RCS_SIZE":"LARGE","MEAN_ELEMENT_THEORY":"SGP4","TIME_SYSTEM":"UTC","NORAD_CAT_ID":"51788","INCLINATION":"53.2177","MEAN_ANOMALY":"271.6868","PERIAPSIS":"538.149","REV_AT_EPOCH":"2678","LAUNCH_DATE":"2022-02-25","OBJECT_NAME":"STARLINK-3641","ELEMENT_SET_NO":"999","DECAY_DATE":null,"PERIOD":"95.437","COUNTRY_CODE":"US","APOAPSIS":"541.303","SEMIMAJOR_AXIS":"6917.861","ECCENTRICITY":"0.00022790","TLE_LINE2":"2 51788  53.2177  90.9771 0002279  62.8669 271.6868 15.08846317 26780","MEAN_MOTION_DDOT":"0.0000000000000","REF_FRAME":"TEME","OBJECT_ID":"2022-017W"},{"PERIAPSIS":"538.703","LAUNCH_DATE":"2022-02-25","REV_AT_EPOCH":"2680","CLASSIFICATION_TYPE":"U","RA_OF_ASC_NODE":"90.9641","FILE":"3534757","BSTAR":"-0.00017509000000","RCS_SIZE":"LARGE","TIME_SYSTEM":"UTC","MEAN_ELEMENT_THEORY":"SGP4","MEAN_ANOMALY":"197.0823","INCLINATION":"53.2162","NORAD_CAT_ID":"51789","GP_ID":"210041695","EPOCH":"2022-08-11T22:00:00.999936","TLE_LINE1":"1 51789U 22017X   22223.91667824 -.00003073  00000-0 -17509-3 0  9996","MEAN_MOTION_DOT":"-0.00003073","OBJECT_TYPE":"PAYLOAD","CENTER_NAME":"EARTH","MEAN_MOTION":"15.08830758","ARG_OF_PERICENTER":"57.4845","EPHEMERIS_TYPE":"0","SITE":"AFWTR","TLE_LINE2":"2 51789  53.2162  90.9641 0001547  57.4845 197.0823 15.08830758 26801","REF_FRAME":"TEME","MEAN_MOTION_DDOT":"0.0000000000000","OBJECT_ID":"2022-017X","SEMIMAJOR_AXIS":"6917.909","ECCENTRICITY":"0.00015470","DECAY_DATE":null,"PERIOD":"95.438","COUNTRY_CODE":"US","APOAPSIS":"540.844","OBJECT_NAME":"STARLINK-3639","ELEMENT_SET_NO":"999"},{"SITE":"AFWTR","EPHEMERIS_TYPE":"0","ARG_OF_PERICENTER":"65.3131","MEAN_MOTION":"15.08838651","OBJECT_TYPE":"PAYLOAD","CENTER_NAME":"EARTH","MEAN_MOTION_DOT":"-0.00007449","TLE_LINE1":"1 51790U 22017Y   22223.91667824 -.00007449  00000-0 -45042-3 0  9992","GP_ID":"210041459","EPOCH":"2022-08-11T22:00:00.999936","NORAD_CAT_ID":"51790","INCLINATION":"53.2185","MEAN_ANOMALY":"289.2419","MEAN_ELEMENT_THEORY":"SGP4","TIME_SYSTEM":"UTC","FILE":"3534757","BSTAR":"-0.00045042000000","RCS_SIZE":"LARGE","RA_OF_ASC_NODE":"90.9750","CLASSIFICATION_TYPE":"U","REV_AT_EPOCH":"2683","LAUNCH_DATE":"2022-02-25","PERIAPSIS":"538.332","ELEMENT_SET_NO":"999","OBJECT_NAME":"STARLINK-3631","APOAPSIS":"541.167","COUNTRY_CODE":"US","PERIOD":"95.438","DECAY_DATE":null,"ECCENTRICITY":"0.00020490","SEMIMAJOR_AXIS":"6917.885","OBJECT_ID":"2022-017Y","MEAN_MOTION_DDOT":"0.0000000000000","REF_FRAME":"TEME","TLE_LINE2":"2 51790  53.2185  90.9750 0002049  65.3131 289.2419 15.08838651 26831"},{"RCS_SIZE":"LARGE","FILE":"3534757","BSTAR":"-0.00029895000000","RA_OF_ASC_NODE":"90.9582","CLASSIFICATION_TYPE":"U","NORAD_CAT_ID":"51791","INCLINATION":"53.2168","MEAN_ANOMALY":"236.3163","MEAN_ELEMENT_THEORY":"SGP4","TIME_SYSTEM":"UTC","LAUNCH_DATE":"2022-02-25","REV_AT_EPOCH":"2678","PERIAPSIS":"538.320","MEAN_MOTION":"15.08834548","CENTER_NAME":"EARTH","OBJECT_TYPE":"PAYLOAD","MEAN_MOTION_DOT":"-0.00005042","SITE":"AFWTR","EPHEMERIS_TYPE":"0","ARG_OF_PERICENTER":"58.2571","GP_ID":"210041455","EPOCH":"2022-08-11T22:00:00.999936","TLE_LINE1":"1 51791U 22017Z   22223.91667824 -.00005042  00000-0 -29895-3 0  9998","SEMIMAJOR_AXIS":"6917.897","ECCENTRICITY":"0.00020840","MEAN_MOTION_DDOT":"0.0000000000000","REF_FRAME":"TEME","TLE_LINE2":"2 51791  53.2168  90.9582 0002084  58.2571 236.3163 15.08834548 26788","OBJECT_ID":"2022-017Z","OBJECT_NAME":"STARLINK-3602","ELEMENT_SET_NO":"999","PERIOD":"95.438","DECAY_DATE":null,"APOAPSIS":"541.204","COUNTRY_CODE":"US"},{"FILE":"3534797","BSTAR":"0.00165840000000","RCS_SIZE":"LARGE","RA_OF_ASC_NODE":"90.6015","CLASSIFICATION_TYPE":"U","NORAD_CAT_ID":"51792","INCLINATION":"53.2176","MEAN_ANOMALY":"64.6009","MEAN_ELEMENT_THEORY":"SGP4","TIME_SYSTEM":"UTC","LAUNCH_DATE":"2022-02-25","REV_AT_EPOCH":"2685","PERIAPSIS":"538.476","MEAN_MOTION":"15.08820007","OBJECT_TYPE":"PAYLOAD","CENTER_NAME":"EARTH","MEAN_MOTION_DOT":"0.00026190","SITE":"AFWTR","EPHEMERIS_TYPE":"0","ARG_OF_PERICENTER":"62.8595","EPOCH":"2022-08-12T00:00:00.999648","GP_ID":"210042514","TLE_LINE1":"1 51792U 22017AA  22224.00001157  .00026190  00000-0  16584-2 0  9996","SEMIMAJOR_AXIS":"6917.942","ECCENTRICITY":"0.00019230","MEAN_MOTION_DDOT":"0.0000000000000","REF_FRAME":"TEME","TLE_LINE2":"2 51792  53.2176  90.6015 0001923  62.8595  64.6009 15.08820007 26858","OBJECT_ID":"2022-017AA","OBJECT_NAME":"STARLINK-3626","ELEMENT_SET_NO":"999","PERIOD":"95.439","DECAY_DATE":null,"APOAPSIS":"541.137","COUNTRY_CODE":"US"},{"EPOCH":"2022-08-11T22:00:00.999936","GP_ID":"210041451","TLE_LINE1":"1 51793U 22017AB  22223.91667824 -.00005599  00000-0 -33386-3 0  9997","MEAN_MOTION":"15.08845957","OBJECT_TYPE":"PAYLOAD","CENTER_NAME":"EARTH","MEAN_MOTION_DOT":"-0.00005599","EPHEMERIS_TYPE":"0","SITE":"AFWTR","ARG_OF_PERICENTER":"62.2353","REV_AT_EPOCH":"2683","LAUNCH_DATE":"2022-02-25","PERIAPSIS":"538.200","FILE":"3534757","BSTAR":"-0.00033386000000","RCS_SIZE":"LARGE","CLASSIFICATION_TYPE":"U","RA_OF_ASC_NODE":"90.9640","MEAN_ANOMALY":"252.2584","INCLINATION":"53.2179","NORAD_CAT_ID":"51793","MEAN_ELEMENT_THEORY":"SGP4","TIME_SYSTEM":"UTC","PERIOD":"95.437","DECAY_DATE":null,"APOAPSIS":"541.254","COUNTRY_CODE":"US","OBJECT_NAME":"STARLINK-3633","ELEMENT_SET_NO":"999","REF_FRAME":"TEME","MEAN_MOTION_DDOT":"0.0000000000000","TLE_LINE2":"2 51793  53.2179  90.9640 0002207  62.2353 252.2584 15.08845957 26833","OBJECT_ID":"2022-017AB","SEMIMAJOR_AXIS":"6917.862","ECCENTRICITY":"0.00022070"}];
